{
    "links": {
        "self": "http://www.neowsapp.com/rest/v1/neo/3446397?api_key=iIulBulltgU6a56xZRHN4H3l9WmuAYTsLGpBGhQ2"
    },
    "id": "3446397",
    "neo_reference_id": "3446397",
    "name": "(2009 CV5)",
    "designation": "2009 CV5",
    "nasa_jpl_url": "http://ssd.jpl.nasa.gov/sbdb.cgi?sstr=3446397",
    "absolute_magnitude_h": 24.8,
    "estimated_diameter": {
        "kilometers": {
            "estimated_diameter_min": 0.0291443905,
            "estimated_diameter_max": 0.0651688382
        },
        "meters": {
            "estimated_diameter_min": 29.1443904535,
            "estimated_diameter_max": 65.1688382168
        },
        "miles": {
            "estimated_diameter_min": 0.018109479,
            "estimated_diameter_max": 0.0404940262
        },
        "feet": {
            "estimated_diameter_min": 95.6180819754,
            "estimated_diameter_max": 213.8085311752
        }
    },
    "is_potentially_hazardous_asteroid": false,
    "close_approach_data": [
        {
            "close_approach_date": "2009-02-24",
            "close_approach_date_full": "2009-Feb-24 09:52",
            "epoch_date_close_approach": 1235469120000,
            "relative_velocity": {
                "kilometers_per_second": "7.1249895798",
                "kilometers_per_hour": "25649.9624873192",
                "miles_per_hour": "15937.889191079"
            },
            "miss_distance": {
                "astronomical": "0.0287958016",
                "lunar": "11.2015668224",
                "kilometers": "4307790.584302592",
                "miles": "2676736.9471440896"
            },
            "orbiting_body": "Earth"
        },
        {
            "close_approach_date": "2062-02-03",
            "close_approach_date_full": "2062-Feb-03 00:06",
            "epoch_date_close_approach": 2906150760000,
            "relative_velocity": {
                "kilometers_per_second": "12.1122948515",
                "kilometers_per_hour": "43604.2614655757",
                "miles_per_hour": "27093.9923534295"
            },
            "miss_distance": {
                "astronomical": "0.174539954",
                "lunar": "67.896042106",
                "kilometers": "26110805.34829798",
                "miles": "16224502.103272924"
            },
            "orbiting_body": "Earth"
        }
    ],
    "orbital_data": {
        "orbit_id": "12",
        "orbit_determination_date": "2017-04-06 09:01:21",
        "first_observation_date": "2009-02-15",
        "last_observation_date": "2009-03-02",
        "data_arc_in_days": 15,
        "observations_used": 65,
        "orbit_uncertainty": "8",
        "minimum_orbit_intersection": ".00802271",
        "jupiter_tisserand_invariant": "3.685",
        "epoch_osculation": "2454882.5",
        "eccentricity": ".4971032688674069",
        "semi_major_axis": "1.992488210079679",
        "inclination": "1.350895858345204",
        "ascending_node_longitude": "355.8263900267221",
        "orbital_period": "1027.287650481064",
        "perihelion_distance": "1.002015807669302",
        "perihelion_argument": "175.15063612",
        "aphelion_distance": "2.982960612490055",
        "perihelion_time": "2454898.857891970051",
        "mean_anomaly": "354.2675830801035",
        "mean_motion": ".3504373870662392",
        "equinox": "J2000",
        "orbit_class": {
            "orbit_class_type": "APO",
            "orbit_class_description": "Near-Earth asteroid orbits which cross the Earth’s orbit similar to that of 1862 Apollo",
            "orbit_class_range": "a (semi-major axis) > 1.0 AU; q (perihelion) < 1.017 AU"
        }
    },
    "is_sentry_object": false
}